NOAA 15                 
1 25338U 98030A   25110.46618982  .00000303  00000+0  14238-3 0  9990
2 25338  98.5400 136.7936 0011103 141.3576 218.8401 14.26945962401251
NOAA 18                 
1 28654U 05018A   25110.43830327  .00000339  00000+0  20330-3 0  9993
2 28654  98.8425 190.4771 0013047 271.1492  88.8185 14.13579639 26669
NOAA 19                 
1 33591U 09005A   25110.43659897  .00000297  00000+0  18246-3 0  9996
2 33591  99.0007 174.8521 0014555 142.6853 217.5333 14.13344207835026
METOP-B                 
1 38771U 12049A   25110.49181281  .00000226  00000+0  12288-3 0  9998
2 38771  98.5819 166.1057 0001889 116.2950 243.8422 14.21481267653201
SARAL                   
1 39086U 13009A   25109.90767426  .00000226  00000+0  99118-4 0  9998
2 39086  98.5544 296.9146 0003168  97.1412 263.0132 14.32684958634990
METOP-C                 
1 43689U 18087A   25110.45716971  .00000221  00000+0  12100-3 0  9994
2 43689  98.6775 171.4388 0000247  15.1059 345.0126 14.21516463334778
ANGELS                  
1 44876U 19092D   25110.51622496  .00034616  00000+0  82641-3 0  9997
2 44876  97.4613 307.7619 0005927 308.2918  51.7795 15.41437053296428
OTB-3-GAZELLE           
1 54023U 22127A   25110.51654529  .00000360  00000+0  12142-3 0  9995
2 54023  98.3668 104.4696 0013834  29.1139 331.0819 14.42477271133427
EOS-6 (OCEANSAT-3)      
1 54361U 22158A   25110.52359919  .00000714  00000+0  20846-3 0  9993
2 54361  98.3487 209.4039 0001814 130.8635 229.2715 14.46982643126719
